{
    "links": {
        "self": "http://www.neowsapp.com/rest/v1/neo/54017578?api_key=iIulBulltgU6a56xZRHN4H3l9WmuAYTsLGpBGhQ2"
    },
    "id": "54017578",
    "neo_reference_id": "54017578",
    "name": "(2020 MP1)",
    "designation": "2020 MP1",
    "nasa_jpl_url": "http://ssd.jpl.nasa.gov/sbdb.cgi?sstr=54017578",
    "absolute_magnitude_h": 26.062,
    "estimated_diameter": {
        "kilometers": {
            "estimated_diameter_min": 0.0162987755,
            "estimated_diameter_max": 0.0364451699
        },
        "meters": {
            "estimated_diameter_min": 16.298775455,
            "estimated_diameter_max": 36.4451698675
        },
        "miles": {
            "estimated_diameter_min": 0.0101275864,
            "estimated_diameter_max": 0.0226459716
        },
        "feet": {
            "estimated_diameter_min": 53.4736744639,
            "estimated_diameter_max": 119.570771108
        }
    },
    "is_potentially_hazardous_asteroid": false,
    "close_approach_data": [
        {
            "close_approach_date": "2020-06-24",
            "close_approach_date_full": "2020-Jun-24 19:51",
            "epoch_date_close_approach": 1593028260000,
            "relative_velocity": {
                "kilometers_per_second": "8.5542811199",
                "kilometers_per_hour": "30795.4120317346",
                "miles_per_hour": "19135.0714371631"
            },
            "miss_distance": {
                "astronomical": "0.0051110822",
                "lunar": "1.9882109758",
                "kilometers": "764607.010514914",
                "miles": "475104.7654332532"
            },
            "orbiting_body": "Moon"
        },
        {
            "close_approach_date": "2020-06-25",
            "close_approach_date_full": "2020-Jun-25 02:04",
            "epoch_date_close_approach": 1593050640000,
            "relative_velocity": {
                "kilometers_per_second": "7.8450044716",
                "kilometers_per_hour": "28242.0160979254",
                "miles_per_hour": "17548.4905026248"
            },
            "miss_distance": {
                "astronomical": "0.0030546115",
                "lunar": "1.1882438735",
                "kilometers": "456963.374077505",
                "miles": "283943.873999369"
            },
            "orbiting_body": "Earth"
        }
    ],
    "orbital_data": {
        "orbit_id": "7",
        "orbit_determination_date": "2020-08-22 06:34:46",
        "first_observation_date": "2020-06-21",
        "last_observation_date": "2020-06-25",
        "data_arc_in_days": 4,
        "observations_used": 152,
        "orbit_uncertainty": "7",
        "minimum_orbit_intersection": ".00295341",
        "jupiter_tisserand_invariant": "3.660",
        "epoch_osculation": "2459000.5",
        "eccentricity": ".493583183690114",
        "semi_major_axis": "2.012733164198375",
        "inclination": "6.653283001487848",
        "ascending_node_longitude": "94.30676988336924",
        "orbital_period": "1042.984203279012",
        "perihelion_distance": "1.019281921094664",
        "perihelion_argument": "180.4342816987699",
        "aphelion_distance": "3.006184407302086",
        "perihelion_time": "2459026.433111715864",
        "mean_anomaly": "351.0488383348854",
        "mean_motion": ".3451634251680944",
        "equinox": "J2000",
        "orbit_class": {
            "orbit_class_type": "AMO",
            "orbit_class_description": "Near-Earth asteroid orbits similar to that of 1221 Amor",
            "orbit_class_range": "1.017 AU < q (perihelion) < 1.3 AU"
        }
    },
    "is_sentry_object": false
}